FENGYUN 3D              
1 43010U 17072A   26187.24600115  .00000316  00000+0  17119-3 0  9999
2 43010  99.0142 162.0137 0001976  31.4151 328.7142 14.19744389447690
NOAA 20 (JPSS-1)        
1 43013U 17073A   26187.24409377  .00000060  00000+0  49277-4 0  9997
2 43013  98.7772 126.5376 0001036 131.5950 228.5315 14.19515292447175
GOES 17                 
1 43226U 18022A   26187.27191663 -.00000169  00000+0  00000+0 0  9994
2 43226   0.9826  85.4093 0000620  52.5833 154.6584  1.00272256 30615
SENTINEL-3B             
1 43437U 18039A   26187.19489750  .00000114  00000+0  64969-4 0  9992
2 43437  98.6240 254.4537 0000946 117.9114 242.2162 14.26740326426832
FENGYUN 2H              
1 43491U 18050A   26187.02016499 -.00000115  00000+0  00000+0 0  9996
2 43491   3.0768  78.8602 0001907 122.2023 169.4681  1.00268948 29629
METOP-C                 
1 43689U 18087A   26187.21338691  .00000098  00000+0  64506-4 0  9992
2 43689  98.6634 246.4684 0002192 105.2479 254.8941 14.21517385397531
GEO-KOMPSAT-2A          
1 43823U 18100A   26186.95856429 -.00000329  00000+0  00000+0 0  9994
2 43823   0.0410 155.1516 0002430 302.7643 299.3798  1.00272083 27813
METEOR-M2 2             
1 44387U 19038A   26187.28134694  .00000422  00000+0  20236-3 0  9991
2 44387  98.9157 174.8494 0001231  19.2241 340.8984 14.24372558364011
ARKTIKA-M 1             
1 47719U 21016A   26180.95192977 -.00000281  00000+0  00000+0 0  9994
2 47719  63.2520  55.7907 7292817 269.9910  14.5481  2.00617895 39040
FENGYUN 3E              
1 49008U 21062A   26187.29822462  .00000027  00000+0  33532-4 0  9999
2 49008  98.7497 190.4934 0002586  54.4250 305.7167 14.19905528259298
GOES 18                 
1 51850U 22021A   26187.11992289  .00000111  00000+0  00000+0 0  9992
2 51850   0.0038 278.4771 0000573 249.2475  22.5490  1.00272127  6781
NOAA 21 (JPSS-2)        
1 54234U 22150A   26187.13556579  .00000068  00000+0  52766-4 0  9996
2 54234  98.7060 125.6064 0002579 120.3209 239.8223 14.19540018189239
METEOSAT-12 (MTG-I1)    
1 54743U 22170C   26187.07572269  .00000008  00000+0  00000+0 0  9993
2 54743   0.7587  25.7918 0003433  76.4656 208.8801  1.00276475 13161
TIANMU-1 03             
1 55973U 23039A   26187.31900998  .00013528  00000+0  26182-3 0  9999
2 55973  97.5247   2.0449 0003331  48.9759 311.1778 15.47858544183793
TIANMU-1 04             
1 55974U 23039B   26187.30098833  .00014160  00000+0  26814-3 0  9990
2 55974  97.5180   1.1818 0003829  44.1165 316.0390 15.48475317183801
TIANMU-1 05             
1 55975U 23039C   26187.30070760  .00013458  00000+0  26116-3 0  9994
2 55975  97.5227   1.6340 0003626  69.4066 290.7573 15.47781405183778
TIANMU-1 06             
1 55976U 23039D   26187.30558541  .00013761  00000+0  26158-3 0  9996
2 55976  97.5233   2.2942 0003815  63.3505 296.8136 15.48373332183805
FENGYUN 3G              
1 56232U 23055A   26187.28001711  .00018859  00000+0  29728-3 0  9998
2 56232  49.9916 247.5836 0007214  16.7736 343.3468 15.53509695182973
METEOR-M2 3             
1 57166U 23091A   26187.28006758 -.00000006  00000+0  16327-4 0  9999
2 57166  98.6077 241.8668 0005095 110.2435 249.9292 14.24048429157237
TIANMU-1 07             
1 57399U 23101A   26187.26392481  .00005536  00000+0  19292-3 0  9993
2 57399  97.2578 237.4954 0004177  83.0545 277.1171 15.30043393164560
TIANMU-1 08             
1 57400U 23101B   26187.29591506  .00006011  00000+0  20919-3 0  9995
2 57400  97.2569 237.2945 0005306  69.0143 291.1665 15.30046978164560
TIANMU-1 09             
1 57401U 23101C   26187.27890559  .00006247  00000+0  21706-3 0  9990
2 57401  97.2526 236.6840 0004777  84.7114 275.4673 15.30085335164568
TIANMU-1 10             
1 57402U 23101D   26187.31229650  .00006053  00000+0  21050-3 0  9991
2 57402  97.2606 237.7866 0006226  77.5502 282.6435 15.30058777164566
FENGYUN 3F              
1 57490U 23111A   26187.28168620  .00000045  00000+0  41458-4 0  9994
2 57490  98.6829 256.9340 0001436  80.7939 279.3400 14.19942412151579
ARKTIKA-M 2             
1 58584U 23198A   26180.72239164  .00000148  00000+0  00000+0 0  9995
2 58584  63.2199 152.9641 6905877 267.3845  18.7575  2.00610643 18573
TIANMU-1 11             
1 58645U 23205A   26187.31819458  .00004949  00000+0  18826-3 0  9996
2 58645  97.3444 208.5762 0006941 302.1181  57.9384 15.27201284140448
TIANMU-1 12             
1 58646U 23205B   26187.28960622  .00005147  00000+0  19674-3 0  9996
2 58646  97.3433 208.2987 0005456 276.2454  83.8164 15.27030340140422
TIANMU-1 13             
1 58647U 23205C   26187.32300455  .00005179  00000+0  19802-3 0  9992
2 58647  97.3460 208.6083 0005097 251.7735 108.2949 15.27023533140424
TIANMU-1 14             
1 58648U 23205D   26187.30765214  .00004971  00000+0  18991-3 0  9996
2 58648  97.3396 207.7600 0005827 259.7478 100.3104 15.27067694140423
TIANMU-1 19             
1 58660U 23208A   26187.29754019  .00007230  00000+0  23742-3 0  9993
2 58660  97.4518 303.7002 0003801 235.2481 124.8403 15.31879479140251
