OBJECT_NAME,OBJECT_ID,EPOCH,MEAN_MOTION,ECCENTRICITY,INCLINATION,RA_OF_ASC_NODE,ARG_OF_PERICENTER,MEAN_ANOMALY,EPHEMERIS_TYPE,CLASSIFICATION_TYPE,NORAD_CAT_ID,ELEMENT_SET_NO,REV_AT_EPOCH,BSTAR,MEAN_MOTION_DOT,MEAN_MOTION_DDOT
FENGYUN 3D,2017-072A,2026-07-06T05:54:14.499360,14.19744389,.00019767,99.0142,162.0137,31.4151,328.7142,0,U,43010,999,44769,.17118875E-3,.316E-5,0
NOAA 20 (JPSS-1),2017-073A,2026-07-06T05:51:29.701728,14.19515292,.00010364,98.7772,126.5376,131.5950,228.5315,0,U,43013,999,44717,.49276723E-4,.6E-6,0
GOES 17,2018-022A,2026-07-06T06:31:33.596832,1.00272256,.00006206,0.9826,85.4093,52.5833,154.6584,0,U,43226,999,3061,0,-.169E-5,0
SENTINEL-3B,2018-039A,2026-07-06T04:40:39.144000,14.26740326,.00009461,98.6240,254.4537,117.9114,242.2162,0,U,43437,999,42683,.64968842E-4,.114E-5,0
FENGYUN 2H,2018-050A,2026-07-06T00:29:02.255136,1.00268948,.00019075,3.0768,78.8602,122.2023,169.4681,0,U,43491,999,2962,0,-.115E-5,0
METOP-C,2018-087A,2026-07-06T05:07:16.629024,14.21517385,.00021928,98.6634,246.4684,105.2479,254.8941,0,U,43689,999,39753,.64506043E-4,.98E-6,0
GEO-KOMPSAT-2A,2018-100A,2026-07-05T23:00:19.954656,1.00272083,.00024302,0.0410,155.1516,302.7643,299.3798,0,U,43823,999,2781,0,-.329E-5,0
METEOR-M2 2,2019-038A,2026-07-06T06:45:08.375616,14.24372558,.00012319,98.9157,174.8494,19.2241,340.8984,0,U,44387,999,36401,.20236001E-3,.422E-5,0
ARKTIKA-M 1,2021-016A,2026-06-29T22:50:46.732128,2.00617895,.72928178,63.2520,55.7907,269.9910,14.5481,0,U,47719,999,3904,0,-.281E-5,0
FENGYUN 3E,2021-062A,2026-07-06T07:09:26.607168,14.19905528,.00025866,98.7497,190.4934,54.4250,305.7167,0,U,49008,999,25929,.33531876E-4,.27E-6,0
GOES 18,2022-021A,2026-07-06T02:52:41.337696,1.00272127,.00005738,0.0038,278.4771,249.2475,22.5490,0,U,51850,999,678,0,.111E-5,0
NOAA 21 (JPSS-2),2022-150A,2026-07-06T03:15:12.884256,14.19540018,.00025791,98.7060,125.6064,120.3209,239.8223,0,U,54234,999,18923,.52765815E-4,.68E-6,0
METEOSAT-12 (MTG-I1),2022-170C,2026-07-06T01:49:02.440416,1.00276475,.00034337,0.7587,25.7918,76.4656,208.8801,0,U,54743,999,1316,0,.8E-7,0
TIANMU-1 03,2023-039A,2026-07-06T07:39:22.462272,15.47858544,.00033316,97.5247,2.0449,48.9759,311.1778,0,U,55973,999,18379,.26182062E-3,.13528E-3,0
TIANMU-1 04,2023-039B,2026-07-06T07:13:25.391712,15.48475317,.00038299,97.5180,1.1818,44.1165,316.0390,0,U,55974,999,18380,.26813966E-3,.1416E-3,0
TIANMU-1 05,2023-039C,2026-07-06T07:13:01.136640,15.47781405,.00036264,97.5227,1.6340,69.4066,290.7573,0,U,55975,999,18377,.26116208E-3,.13458E-3,0
TIANMU-1 06,2023-039D,2026-07-06T07:20:02.579424,15.48373332,.00038155,97.5233,2.2942,63.3505,296.8136,0,U,55976,999,18380,.26158313E-3,.13761E-3,0
FENGYUN 3G,2023-055A,2026-07-06T06:43:13.478304,15.53509695,.00072147,49.9916,247.5836,16.7736,343.3468,0,U,56232,999,18297,.29727557E-3,.18859E-3,0
METEOR-M2 3,2023-091A,2026-07-06T06:43:17.838912,14.24048429,.00050953,98.6077,241.8668,110.2435,249.9292,0,U,57166,999,15723,.16326595E-4,-.6E-7,0
TIANMU-1 07,2023-101A,2026-07-06T06:20:03.103584,15.30043393,.00041776,97.2578,237.4954,83.0545,277.1171,0,U,57399,999,16456,.19292043E-3,.5536E-4,0
TIANMU-1 08,2023-101B,2026-07-06T07:06:07.061184,15.30046978,.00053064,97.2569,237.2945,69.0143,291.1665,0,U,57400,999,16456,.20918798E-3,.6011E-4,0
TIANMU-1 09,2023-101C,2026-07-06T06:41:37.442976,15.30085335,.00047778,97.2526,236.6840,84.7114,275.4673,0,U,57401,999,16456,.2170577E-3,.6247E-4,0
TIANMU-1 10,2023-101D,2026-07-06T07:29:42.417600,15.30058777,.00062264,97.2606,237.7866,77.5502,282.6435,0,U,57402,999,16456,.21050499E-3,.6053E-4,0
FENGYUN 3F,2023-111A,2026-07-06T06:45:37.687680,14.19942412,.00014362,98.6829,256.9340,80.7939,279.3400,0,U,57490,999,15157,.41457895E-4,.45E-6,0
ARKTIKA-M 2,2023-198A,2026-06-29T17:20:14.637696,2.00610643,.69058771,63.2199,152.9641,267.3845,18.7575,0,U,58584,999,1857,0,.148E-5,0
TIANMU-1 11,2023-205A,2026-07-06T07:38:12.011712,15.27201284,.00069411,97.3444,208.5762,302.1181,57.9384,0,U,58645,999,14044,.1882644E-3,.4949E-4,0
TIANMU-1 12,2023-205B,2026-07-06T06:57:01.977408,15.27030340,.00054564,97.3433,208.2987,276.2454,83.8164,0,U,58646,999,14042,.19674435E-3,.5147E-4,0
TIANMU-1 13,2023-205C,2026-07-06T07:45:07.593120,15.27023533,.00050977,97.3460,208.6083,251.7735,108.2949,0,U,58647,999,14042,.19801794E-3,.5179E-4,0
TIANMU-1 14,2023-205D,2026-07-06T07:23:01.144896,15.27067694,.00058275,97.3396,207.7600,259.7478,100.3104,0,U,58648,999,14042,.18990672E-3,.4971E-4,0
TIANMU-1 19,2023-208A,2026-07-06T07:08:27.472416,15.31879479,.00038019,97.4518,303.7002,235.2481,124.8403,0,U,58660,999,14025,.2374153E-3,.723E-4,0
